NORAD_CAT_ID,OBJECT_NAME,OBJECT_TYPE,EPOCH,MEAN_MOTION,ECCENTRICITY,INCLINATION,RA_OF_ASC_NODE,ARG_OF_PERICENTER,MEAN_ANOMALY,BSTAR,MEAN_MOTION_DOT,MEAN_MOTION_DDOT,TLE_LINE0,TLE_LINE1,TLE_LINE2,SEMIMAJOR_AXIS,PERIOD,APOGEE,PERIGEE,DECAYED
52368.0,STARLINK-3834,PAYLOAD,2022-08-03 14:00:01,15.14993252,0.0001691,53.2174,328.4265,46.3669,48.3673,-0.06155,-0.01076762,0.0,0 STARLINK-3834,1 52368U 22045AP  22215.58334491 -.01076762  00000-0 -61550-1 0  9995,2 52368  53.2174 328.4265 0001691  46.3669  48.3673 15.14993252  1305,6899.136,95.05,522.168,519.8340000000002,0.0
52368.0,STARLINK-3834,PAYLOAD,2022-08-03 22:00:01,15.14232809,0.0001503,53.2173,326.9159,56.2102,57.113,-0.062784,-0.0107497999999999,0.0,0 STARLINK-3834,1 52368U 22045AP  22215.91668981 -.01074980  00000-0 -62784-1 0  9996,2 52368  53.2173 326.9159 0001503  56.2102  57.1130 15.14232809  1303,6901.446,95.098,524.3480000000002,522.273,0.0
52368.0,STARLINK-3834,PAYLOAD,2022-08-04 06:00:00,15.13473234,0.0001641999999999,53.2174,325.4064,51.7949,79.0783,-0.064167,-0.010753,0.0,0 STARLINK-3834,1 52368U 22045AP  22216.25001157 -.01075300  00000-0 -64167-1 0  9994,2 52368  53.2174 325.4064 0001642  51.7949  79.0783 15.13473234 17623,6903.755,95.145,526.753,524.486,0.0
52368.0,STARLINK-3834,PAYLOAD,2022-08-04 14:00:01,15.12713733,0.0001829,53.2174,323.9019,45.6856,101.8863,-0.065541,-0.01075121,0.0,0 STARLINK-3834,1 52368U 22045AP  22216.58334491 -.01075121  00000-0 -65541-1 0  9998,2 52368  53.2174 323.9019 0001829  45.6856 101.8863 15.12713733  1303,6906.065,95.193,529.193,526.6669999999998,0.0
52368.0,STARLINK-3834,PAYLOAD,2022-08-04 22:00:00,15.11953939,0.000156,53.2173,322.3966,58.7055,104.654,-0.066901,-0.01074298,0.0,0 STARLINK-3834,1 52368U 22045AP  22216.91667824 -.01074298  00000-0 -66901-1 0  9999,2 52368  53.2173 322.3966 0001560  58.7055 104.6540 15.11953939  1300,6908.379,95.241,531.321,529.1659999999998,0.0
52368.0,STARLINK-3834,PAYLOAD,2022-08-05 06:00:02,15.11194783,0.0001646,53.2174,320.8924,56.1136,122.1837,-0.068386,-0.0107505,0.0,0 STARLINK-3834,1 52368U 22045AP  22217.25002315 -.01075050  00000-0 -68386-1 0  9991,2 52368  53.2174 320.8924 0001646  56.1136 122.1837 15.11194783 17771,6910.691999999999,95.289,533.695,531.42,0.0
52368.0,STARLINK-3834,PAYLOAD,2022-08-05 14:00:01,15.10434711,0.0001810999999999,53.2173,319.3931,50.6063,141.65200000000004,-0.069803,-0.01074437,0.0,0 STARLINK-3834,1 52368U 22045AP  22217.58335648 -.01074437  00000-0 -69803-1 0  9998,2 52368  53.2173 319.3931 0001811  50.6063 141.6520 15.10434711  1307,6913.01,95.337,536.127,533.623,0.0
52368.0,STARLINK-3834,PAYLOAD,2022-08-05 21:06:39,15.11828613,0.0001236,53.2126,318.0731,56.6247,303.4864,-0.01904,-0.00315304,0.0,0 STARLINK-3834,1 52368U 22045AP  22217.87961899 -.00315304  00000-0 -19040-1 0  9991,2 52368  53.2126 318.0731 0001236  56.6247 303.4864 15.11828613 17877,6908.76,95.249,531.479,529.7719999999998,0.0
52368.0,STARLINK-3834,PAYLOAD,2022-08-05 22:00:00,15.09560703,0.0001721999999999,53.2173,317.893,55.4688,149.7963,-0.048788,-0.00735991,0.0,0 STARLINK-3834,1 52368U 22045AP  22217.91667824 -.00735991  00000-0 -48788-1 0  9996,2 52368  53.2173 317.8930 0001722  55.4688 149.7963 15.09560703  1305,6915.678000000001,95.392,538.734,536.352,0.0
52368.0,STARLINK-3834,PAYLOAD,2022-08-06 05:03:33,15.10881341,0.0003102,53.2125,316.5864,61.8621,298.2685,-0.019105,-0.00308512,0.0,0 STARLINK-3834,1 52368U 22045AP  22218.21080975 -.00308512  00000-0 -19105-1 0  9992,2 52368  53.2125 316.5864 0003102  61.8621 298.2685 15.10881341 17928,6911.648,95.309,535.6569999999998,531.369,0.0
52368.0,STARLINK-3834,PAYLOAD,2022-08-06 14:00:01,15.08744498,0.0001626999999999,53.2145,314.9039,45.4886,183.4595,0.018753,0.00310779,0.0,0 STARLINK-3834,1 52368U 22045AP  22218.58334491  .00310779  00000-0  18753-1 0  9991,2 52368  53.2145 314.9039 0001627  45.4886 183.4595 15.08744498  1305,6918.172,95.444,541.163,538.9119999999998,0.0
52368.0,STARLINK-3834,PAYLOAD,2022-08-06 22:00:00,15.08878085,0.0001557,53.2123,313.4096,44.6922,195.8439,-0.0021288,-0.00034044,0.0,0 STARLINK-3834,1 52368U 22045AP  22218.91667824 -.00034044  00000-0 -21288-2 0  9995,2 52368  53.2123 313.4096 0001557  44.6922 195.8439 15.08878085 18023,6917.764,95.435,540.706,538.552,0.0
52368.0,STARLINK-3834,PAYLOAD,2022-08-07 12:50:13,15.09441181,0.0001776999999999,53.2131,310.6346,44.36,315.7534,-0.0068467,-0.00109392,0.0,0 STARLINK-3834,1 52368U 22045AP  22219.53488033 -.00109392  00000-0 -68467-2 0  9996,2 52368  53.2131 310.6346 0001777  44.3600 315.7534 15.09441181 18127,6916.043000000002,95.4,539.137,536.679,0.0
52368.0,STARLINK-3834,PAYLOAD,2022-08-07 20:47:01,15.09376687,0.0001829,53.213,309.1474,46.5143,313.6001,-0.0065324,-0.00104273,0.0,0 STARLINK-3834,1 52368U 22045AP  22219.86599384 -.00104273  00000-0 -65324-2 0  9996,2 52368  53.2130 309.1474 0001829  46.5143 313.6001 15.09376687 18174,6916.24,95.404,539.37,536.84,0.0
52368.0,STARLINK-3834,PAYLOAD,2022-08-08 06:00:00,15.08856062,0.0001588,53.213,307.4224,53.53100000000001,233.4429,0.0017170999999999,0.00027157,0.0,0 STARLINK-3834,1 52368U 22045AP  22220.25001157  .00027157  00000-0  17171-2 0  9997,2 52368  53.2130 307.4224 0001588  53.5310 233.4429 15.08856062 18222,6917.831,95.437,540.795,538.5980000000002,0.0
52368.0,STARLINK-3834,PAYLOAD,2022-08-08 14:00:01,15.08875698,0.0001736,53.213,305.9275,45.6494,253.0185,-0.0011484,-0.00018536,0.0,0 STARLINK-3834,1 52368U 22045AP  22220.58335648 -.00018536  00000-0 -11484-2 0  9992,2 52368  53.2130 305.9275 0001736  45.6494 253.0185 15.08875698  1305,6917.771,95.435,540.837,538.435,0.0
52368.0,STARLINK-3834,PAYLOAD,2022-08-08 22:00:00,15.08884364,0.0001557,53.2128,304.43,44.2371,266.0052,-0.0028533,-0.00045467,0.0,0 STARLINK-3834,1 52368U 22045AP  22220.91667824 -.00045467  00000-0 -28533-2 0  9999,2 52368  53.2128 304.4300 0001557  44.2371 266.0052 15.08884364 18322,6917.745,95.435,540.687,538.533,0.0
52368.0,STARLINK-3834,PAYLOAD,2022-08-09 14:00:01,15.08819577,0.0001686999999999,53.2129,301.4382,44.1514,289.319,-0.00096351,-0.00015581,0.0,0 STARLINK-3834,1 52368U 22045AP  22221.58334491 -.00015581  00000-0 -96351-3 0  9992,2 52368  53.2129 301.4382 0001687  44.1514 289.3190 15.08819577  1307,6917.943,95.439,540.975,538.641,0.0
52368.0,STARLINK-3834,PAYLOAD,2022-08-09 22:00:00,15.08814974,0.0001631,53.2125,299.9406,48.0185,297.0176,-0.0019711,-0.000315,0.0,0 STARLINK-3834,1 52368U 22045AP  22221.91667824 -.00031500  00000-0 -19711-2 0  9991,2 52368  53.2125 299.9406 0001631  48.0185 297.0176 15.08814974  1303,6917.956999999999,95.439,540.95,538.694,0.0
52368.0,STARLINK-3834,PAYLOAD,2022-08-10 06:00:00,15.08807689,0.0001561,53.2126,298.4439,53.5381,303.0434,0.00062853,9.72e-05,0.0,0 STARLINK-3834,1 52368U 22045AP  22222.25001157  .00009720  00000-0  62853-3 0  9993,2 52368  53.2126 298.4439 0001561  53.5381 303.0434 15.08807689 18527,6917.979,95.44,540.924,538.764,0.0
52368.0,STARLINK-3834,PAYLOAD,2022-08-10 14:00:01,15.08793699,0.0001749,53.2129,296.9493,47.2904,320.8515,0.0016706,0.00026366,0.0,0 STARLINK-3834,1 52368U 22045AP  22222.58334491  .00026366  00000-0  16706-2 0  9999,2 52368  53.2129 296.9493 0001749  47.2904 320.8515 15.08793699  1302,6918.022,95.44,541.097,538.677,0.0
52368.0,STARLINK-3834,PAYLOAD,2022-08-10 22:00:00,15.0882079,0.0001633,53.2131,295.4515,49.5367,330.1568,-0.0011461,-0.00018472,0.0,0 STARLINK-3834,1 52368U 22045AP  22222.91667824 -.00018472  00000-0 -11461-2 0  9999,2 52368  53.2131 295.4515 0001633  49.5367 330.1568 15.08820790  1309,6917.939,95.439,540.934,538.674,0.0
52368.0,STARLINK-3834,PAYLOAD,2022-08-11 06:00:02,15.08825466,0.0001595999999999,53.2137,293.955,53.8342,337.4815,-2.9701e-05,-7.6e-06,0.0,0 STARLINK-3834,1 52368U 22045AP  22223.25002315 -.00000760  00000-0 -29701-4 0  9994,2 52368  53.2137 293.9550 0001596  53.8342 337.4815 15.08825466 18685,6917.925,95.438,540.894,538.686,0.0
52368.0,STARLINK-3834,PAYLOAD,2022-08-11 14:00:01,15.0880661,0.0001766999999999,53.2134,292.4603,47.4223,355.4132,0.0020936,0.00033159,0.0,0 STARLINK-3834,1 52368U 22045AP  22223.58334491  .00033159  00000-0  20936-2 0  9998,2 52368  53.2134 292.4603 0001767  47.4223 355.4132 15.08806610  1305,6917.982,95.44,541.07,538.625,0.0
52368.0,STARLINK-3834,PAYLOAD,2022-08-12 14:00:01,15.08824412,0.0001827,53.2127,287.971,46.5678,31.0281,0.0027266,0.00043355,0.0,0 STARLINK-3834,1 52368U 22045AP  22224.58334491  .00043355  00000-0  27266-2 0  9991,2 52368  53.2127 287.9710 0001827  46.5678  31.0281 15.08824412  1308,6917.928000000001,95.439,541.057,538.529,0.0
52368.0,STARLINK-3834,PAYLOAD,2022-08-12 22:00:01,15.08850281,0.0001708,53.2126,286.4728,49.5269,39.7273,-0.00010889,-2.021e-05,0.0,0 STARLINK-3834,1 52368U 22045AP  22224.91668981 -.00002021  00000-0 -10889-3 0  9993,2 52368  53.2126 286.4728 0001708  49.5269  39.7273 15.08850281  1306,6917.849,95.437,540.896,538.5319999999998,0.0
52368.0,STARLINK-3834,PAYLOAD,2022-08-13 06:00:02,15.08867419,0.0001754,53.2132,284.9751,52.0983,48.7563,-0.00077783,-0.00012655,0.0,0 STARLINK-3834,1 52368U 22045AP  22225.25002315 -.00012655  00000-0 -77783-3 0  9994,2 52368  53.2132 284.9751 0001754  52.0983  48.7563 15.08867419 18980,6917.797,95.436,540.875,538.448,0.0
52368.0,STARLINK-3834,PAYLOAD,2022-08-13 14:00:01,15.08836119,0.0001902,53.2125,283.4813,45.6506,66.768,0.0029394,0.00046799,0.0,0 STARLINK-3834,1 52368U 22045AP  22225.58334491  .00046799  00000-0  29394-2 0  9991,2 52368  53.2125 283.4813 0001902  45.6506  66.7680 15.08836119  1300,6917.892,95.438,541.073,538.441,0.0
52368.0,STARLINK-3834,PAYLOAD,2022-08-13 22:00:00,15.08871613,0.0001747,53.2126,281.983,48.184,75.8475,-0.0018375999999999,-0.0002944,0.0,0 STARLINK-3834,1 52368U 22045AP  22225.91667824 -.00029440  00000-0 -18376-2 0  9991,2 52368  53.2126 281.9830 0001747  48.1840  75.8475 15.08871613  1300,6917.784000000002,95.436,540.857,538.44,0.0
